[{"col1":"1 13601U 23001EAE 25077.51706019  .00030938  00000+0  12818-2 0  9996"},{"col1":"2 13601 045.0000 000.0000 0000001 003.0000 200.0000 11.07833000000000"},{"col1":"4789.00000"},{"col1":"6472.00000"},{"col1":"0"}]
